start=new Date('2022-05-18T00:00:00.000Z').valueOf();
sats=[{"MEAN_MOTION":"15.06389492","MEAN_ANOMALY":"289.7245","PERIAPSIS":"546.108","SEMIMAJOR_AXIS":"6925.381","RA_OF_ASC_NODE":"261.1827","FILE":"3450137","GP_ID":"203783369","OBJECT_NAME":"STARLINK-2155","CLASSIFICATION_TYPE":"U","APOAPSIS":"548.384","CENTER_NAME":"EARTH","TLE_LINE1":"1 48557U 21041E   22137.55101454 -.00000801  00000-0 -34886-4 0  9991","DECAY_DATE":null,"EPOCH":"2022-05-17T13:13:27.656256","OBJECT_TYPE":"PAYLOAD","TLE_LINE2":"2 48557  53.0532 261.1827 0001643  70.3921 289.7245 15.06389492 55376","REV_AT_EPOCH":"5537","REF_FRAME":"TEME","EPHEMERIS_TYPE":"0","ARG_OF_PERICENTER":"70.3921","SITE":"AFETR","MEAN_ELEMENT_THEORY":"SGP4","OBJECT_ID":"2021-041E","ELEMENT_SET_NO":"999","BSTAR":"-0.00003488600000","MEAN_MOTION_DDOT":"0.0000000000000","MEAN_MOTION_DOT":"-0.00000801","ECCENTRICITY":"0.00016430","COUNTRY_CODE":"US","LAUNCH_DATE":"2021-05-15","PERIOD":"95.593","RCS_SIZE":"LARGE","NORAD_CAT_ID":"48557","INCLINATION":"53.0532","TIME_SYSTEM":"UTC"},{"LAUNCH_DATE":"2021-05-15","NORAD_CAT_ID":"48558","RCS_SIZE":"LARGE","PERIOD":"95.593","ECCENTRICITY":"0.00015920","COUNTRY_CODE":"US","MEAN_ELEMENT_THEORY":"SGP4","OBJECT_ID":"2021-041F","MEAN_MOTION_DOT":"-0.00000936","ELEMENT_SET_NO":"999","BSTAR":"-0.00004397300000","MEAN_MOTION_DDOT":"0.0000000000000","TIME_SYSTEM":"UTC","INCLINATION":"53.0556","FILE":"3450137","GP_ID":"203783131","CLASSIFICATION_TYPE":"U","OBJECT_NAME":"STARLINK-2166","CENTER_NAME":"EARTH","APOAPSIS":"548.363","MEAN_MOTION":"15.06384623","MEAN_ANOMALY":"276.0986","PERIAPSIS":"546.158","SEMIMAJOR_AXIS":"6925.396","RA_OF_ASC_NODE":"261.4918","TLE_LINE2":"2 48558  53.0556 261.4918 0001592  84.0184 276.0986 15.06384623 54509","REV_AT_EPOCH":"5450","OBJECT_TYPE":"PAYLOAD","ARG_OF_PERICENTER":"84.0184","SITE":"AFETR","REF_FRAME":"TEME","EPHEMERIS_TYPE":"0","TLE_LINE1":"1 48558U 21041F   22137.48099168 -.00000936  00000-0 -43973-4 0  9998","DECAY_DATE":null,"EPOCH":"2022-05-17T11:32:37.681152"},{"BSTAR":"-0.00003150000000","MEAN_MOTION_DDOT":"0.0000000000000","ELEMENT_SET_NO":"999","MEAN_MOTION_DOT":"-0.00000750","MEAN_ELEMENT_THEORY":"SGP4","OBJECT_ID":"2021-041G","COUNTRY_CODE":"US","ECCENTRICITY":"0.00014890","RCS_SIZE":"LARGE","PERIOD":"95.594","NORAD_CAT_ID":"48559","LAUNCH_DATE":"2021-05-15","INCLINATION":"53.0554","TIME_SYSTEM":"UTC","SEMIMAJOR_AXIS":"6925.420","RA_OF_ASC_NODE":"262.2114","MEAN_ANOMALY":"302.7724","PERIAPSIS":"546.254","MEAN_MOTION":"15.06376529","APOAPSIS":"548.317","CENTER_NAME":"EARTH","CLASSIFICATION_TYPE":"U","GP_ID":"203781881","OBJECT_NAME":"STARLINK-2167","FILE":"3450137","EPOCH":"2022-05-17T07:37:43.662144","DECAY_DATE":null,"TLE_LINE1":"1 48559U 21041G   22137.31786646 -.00000750  00000-0 -31500-4 0  9992","EPHEMERIS_TYPE":"0","REF_FRAME":"TEME","ARG_OF_PERICENTER":"57.3408","SITE":"AFETR","OBJECT_TYPE":"PAYLOAD","REV_AT_EPOCH":"5533","TLE_LINE2":"2 48559  53.0554 262.2114 0001489  57.3408 302.7724 15.06376529 55337"},{"MEAN_ANOMALY":"345.5531","PERIAPSIS":"546.244","MEAN_MOTION":"15.06389127","SEMIMAJOR_AXIS":"6925.382","RA_OF_ASC_NODE":"231.0297","OBJECT_NAME":"STARLINK-2186","GP_ID":"203782619","CLASSIFICATION_TYPE":"U","FILE":"3450137","CENTER_NAME":"EARTH","APOAPSIS":"548.250","TLE_LINE1":"1 48561U 21041J   22137.58335648  .00003952  00000-0  28411-3 0  9997","EPOCH":"2022-05-17T14:00:01.999872","DECAY_DATE":null,"REV_AT_EPOCH":"130","TLE_LINE2":"2 48561  53.0528 231.0297 0001448  80.1702 345.5531 15.06389127  1300","OBJECT_TYPE":"PAYLOAD","SITE":"AFETR","ARG_OF_PERICENTER":"80.1702","EPHEMERIS_TYPE":"0","REF_FRAME":"TEME","MEAN_ELEMENT_THEORY":"SGP4","OBJECT_ID":"2021-041J","MEAN_MOTION_DOT":"0.00003952","MEAN_MOTION_DDOT":"0.0000000000000","BSTAR":"0.00028411000000","ELEMENT_SET_NO":"999","RCS_SIZE":"LARGE","PERIOD":"95.593","NORAD_CAT_ID":"48561","LAUNCH_DATE":"2021-05-15","COUNTRY_CODE":"US","ECCENTRICITY":"0.00014480","INCLINATION":"53.0528","TIME_SYSTEM":"UTC"},{"RA_OF_ASC_NODE":"261.5883","SEMIMAJOR_AXIS":"6925.374","PERIAPSIS":"546.225","MEAN_ANOMALY":"278.5269","MEAN_MOTION":"15.06391697","APOAPSIS":"548.253","CENTER_NAME":"EARTH","CLASSIFICATION_TYPE":"U","GP_ID":"203782881","OBJECT_NAME":"STARLINK-2187","FILE":"3450137","EPOCH":"2022-05-17T11:00:46.402560","DECAY_DATE":null,"TLE_LINE1":"1 48562U 21041K   22137.45887040 -.00000084  00000-0  13236-4 0  9996","EPHEMERIS_TYPE":"0","REF_FRAME":"TEME","ARG_OF_PERICENTER":"81.5886","SITE":"AFETR","OBJECT_TYPE":"PAYLOAD","REV_AT_EPOCH":"5536","TLE_LINE2":"2 48562  53.0549 261.5883 0001464  81.5886 278.5269 15.06391697 55362","BSTAR":"0.00001323600000","MEAN_MOTION_DDOT":"0.0000000000000","ELEMENT_SET_NO":"999","MEAN_MOTION_DOT":"-0.00000084","OBJECT_ID":"2021-041K","MEAN_ELEMENT_THEORY":"SGP4","COUNTRY_CODE":"US","ECCENTRICITY":"0.00014640","RCS_SIZE":"LARGE","NORAD_CAT_ID":"48562","PERIOD":"95.593","LAUNCH_DATE":"2021-05-15","TIME_SYSTEM":"UTC","INCLINATION":"53.0549"},{"EPOCH":"2022-05-17T16:13:54.848064","DECAY_DATE":null,"TLE_LINE1":"1 48563U 21041L   22137.67632926  .00002028  00000-0  15500-3 0  9996","ARG_OF_PERICENTER":"68.3169","SITE":"AFETR","EPHEMERIS_TYPE":"0","REF_FRAME":"TEME","REV_AT_EPOCH":"5584","TLE_LINE2":"2 48563  53.0533 260.6177 0001625  68.3169 291.7992 15.06400092 55841","OBJECT_TYPE":"PAYLOAD","RA_OF_ASC_NODE":"260.6177","SEMIMAJOR_AXIS":"6925.348","PERIAPSIS":"546.088","MEAN_ANOMALY":"291.7992","MEAN_MOTION":"15.06400092","APOAPSIS":"548.339","CENTER_NAME":"EARTH","CLASSIFICATION_TYPE":"U","GP_ID":"203792580","OBJECT_NAME":"STARLINK-2188","FILE":"3450452","INCLINATION":"53.0533","TIME_SYSTEM":"UTC","MEAN_MOTION_DOT":"0.00002028","MEAN_MOTION_DDOT":"0.0000000000000","BSTAR":"0.00015500000000","ELEMENT_SET_NO":"999","OBJECT_ID":"2021-041L","MEAN_ELEMENT_THEORY":"SGP4","PERIOD":"95.592","RCS_SIZE":"LARGE","NORAD_CAT_ID":"48563","LAUNCH_DATE":"2021-05-15","COUNTRY_CODE":"US","ECCENTRICITY":"0.00016250"},{"ECCENTRICITY":"0.00015390","COUNTRY_CODE":"US","LAUNCH_DATE":"2021-05-15","PERIOD":"95.591","RCS_SIZE":"LARGE","NORAD_CAT_ID":"48564","ELEMENT_SET_NO":"999","BSTAR":"-0.00005861700000","MEAN_MOTION_DDOT":"0.0000000000000","MEAN_MOTION_DOT":"-0.00001155","OBJECT_ID":"2021-041M","MEAN_ELEMENT_THEORY":"SGP4","TIME_SYSTEM":"UTC","INCLINATION":"53.0550","APOAPSIS":"548.247","CENTER_NAME":"EARTH","FILE":"3450442","CLASSIFICATION_TYPE":"U","GP_ID":"203792624","OBJECT_NAME":"STARLINK-2190","SEMIMAJOR_AXIS":"6925.316","RA_OF_ASC_NODE":"260.3562","MEAN_MOTION":"15.06410488","MEAN_ANOMALY":"294.4123","PERIAPSIS":"546.116","REF_FRAME":"TEME","EPHEMERIS_TYPE":"0","SITE":"AFETR","ARG_OF_PERICENTER":"65.7026","OBJECT_TYPE":"PAYLOAD","TLE_LINE2":"2 48564  53.0550 260.3562 0001539  65.7026 294.4123 15.06410488 55805","REV_AT_EPOCH":"5580","DECAY_DATE":null,"EPOCH":"2022-05-17T17:38:49.924320","TLE_LINE1":"1 48564U 21041M   22137.73530005 -.00001155  00000-0 -58617-4 0  9998"},{"TIME_SYSTEM":"UTC","INCLINATION":"53.0544","MEAN_MOTION_DOT":"-0.00001283","MEAN_MOTION_DDOT":"0.0000000000000","BSTAR":"-0.00006729300000","ELEMENT_SET_NO":"999","OBJECT_ID":"2021-041N","MEAN_ELEMENT_THEORY":"SGP4","RCS_SIZE":"LARGE","PERIOD":"95.593","NORAD_CAT_ID":"48565","LAUNCH_DATE":"2021-05-15","COUNTRY_CODE":"US","ECCENTRICITY":"0.00012900","EPOCH":"2022-05-17T14:22:28.358112","DECAY_DATE":null,"TLE_LINE1":"1 48565U 21041N   22137.59893933 -.00001283  00000-0 -67293-4 0  9997","SITE":"AFETR","ARG_OF_PERICENTER":"86.6087","EPHEMERIS_TYPE":"0","REF_FRAME":"TEME","REV_AT_EPOCH":"5538","TLE_LINE2":"2 48565  53.0544 260.9635 0001290  86.6087 273.5049 15.06388393 55386","OBJECT_TYPE":"PAYLOAD","SEMIMAJOR_AXIS":"6925.384","RA_OF_ASC_NODE":"260.9635","PERIAPSIS":"546.356","MEAN_ANOMALY":"273.5049","MEAN_MOTION":"15.06388393","APOAPSIS":"548.143","CENTER_NAME":"EARTH","GP_ID":"203782130","OBJECT_NAME":"STARLINK-2191","CLASSIFICATION_TYPE":"U","FILE":"3450137"},{"DECAY_DATE":null,"EPOCH":"2022-05-17T11:45:51.462144","TLE_LINE1":"1 48566U 21041P   22137.49017896 -.00000950  00000-0 -44884-4 0  9994","REF_FRAME":"TEME","EPHEMERIS_TYPE":"0","ARG_OF_PERICENTER":"74.8680","SITE":"AFETR","OBJECT_TYPE":"PAYLOAD","TLE_LINE2":"2 48566  53.0544 271.4481 0001658  74.8680 285.2492 15.06388945 55227","REV_AT_EPOCH":"5522","RA_OF_ASC_NODE":"271.4481","SEMIMAJOR_AXIS":"6925.382","MEAN_MOTION":"15.06388945","MEAN_ANOMALY":"285.2492","PERIAPSIS":"546.099","CENTER_NAME":"EARTH","APOAPSIS":"548.396","FILE":"3450137","CLASSIFICATION_TYPE":"U","GP_ID":"203783370","OBJECT_NAME":"STARLINK-2214","INCLINATION":"53.0544","TIME_SYSTEM":"UTC","ELEMENT_SET_NO":"999","BSTAR":"-0.00004488400000","MEAN_MOTION_DDOT":"0.0000000000000","MEAN_MOTION_DOT":"-0.00000950","OBJECT_ID":"2021-041P","MEAN_ELEMENT_THEORY":"SGP4","ECCENTRICITY":"0.00016580","COUNTRY_CODE":"US","LAUNCH_DATE":"2021-05-15","PERIOD":"95.593","RCS_SIZE":"MEDIUM","NORAD_CAT_ID":"48566"},{"COUNTRY_CODE":"US","ECCENTRICITY":"0.00013970","RCS_SIZE":"LARGE","NORAD_CAT_ID":"48567","PERIOD":"95.593","LAUNCH_DATE":"2021-05-15","BSTAR":"-0.00005846600000","MEAN_MOTION_DDOT":"0.0000000000000","ELEMENT_SET_NO":"999","MEAN_MOTION_DOT":"-0.00001152","OBJECT_ID":"2021-041Q","MEAN_ELEMENT_THEORY":"SGP4","TIME_SYSTEM":"UTC","INCLINATION":"53.0562","APOAPSIS":"548.227","CENTER_NAME":"EARTH","GP_ID":"203783132","CLASSIFICATION_TYPE":"U","OBJECT_NAME":"STARLINK-2215","FILE":"3450137","SEMIMAJOR_AXIS":"6925.395","RA_OF_ASC_NODE":"271.3944","MEAN_ANOMALY":"278.6019","PERIAPSIS":"546.292","MEAN_MOTION":"15.06384970","EPHEMERIS_TYPE":"0","REF_FRAME":"TEME","ARG_OF_PERICENTER":"81.5128","SITE":"AFETR","OBJECT_TYPE":"PAYLOAD","REV_AT_EPOCH":"5522","TLE_LINE2":"2 48567  53.0562 271.3944 0001397  81.5128 278.6019 15.06384970 55228","EPOCH":"2022-05-17T12:03:08.801280","DECAY_DATE":null,"TLE_LINE1":"1 48567U 21041Q   22137.50218520 -.00001152  00000-0 -58466-4 0  9990"}];
